[{"OBJECT_NAME":"STARLINK-31774","OBJECT_ID":"2024-080X","EPOCH":"2026-03-09T07:30:45.879264","MEAN_MOTION":15.27576945,"ECCENTRICITY":0.00014996,"INCLINATION":43.0047,"RA_OF_ASC_NODE":36.6914,"ARG_OF_PERICENTER":262.6792,"MEAN_ANOMALY":97.3889,"EPHEMERIS_TYPE":0,"CLASSIFICATION_TYPE":"U","NORAD_CAT_ID":59622,"ELEMENT_SET_NO":999,"REV_AT_EPOCH":10451,"BSTAR":-1.138642e-5,"MEAN_MOTION_DOT":-5.76e-6,"MEAN_MOTION_DDOT":0},{"OBJECT_NAME":"FLOCK 4G-18","OBJECT_ID":"2025-009BZ","EPOCH":"2026-03-09T04:35:14.656704","MEAN_MOTION":15.27241676,"ECCENTRICITY":0.00041001,"INCLINATION":97.4054,"RA_OF_ASC_NODE":150.5008,"ARG_OF_PERICENTER":335.7331,"MEAN_ANOMALY":24.3715,"EPHEMERIS_TYPE":0,"CLASSIFICATION_TYPE":"U","NORAD_CAT_ID":62680,"ELEMENT_SET_NO":999,"REV_AT_EPOCH":12126,"BSTAR":0.0004431856,"MEAN_MOTION_DOT":0.00011766,"MEAN_MOTION_DDOT":0}]
